HAIYANG-2D              
1 48621U 21043A   26161.27988925 -.00000112  00000+0 -28042-4 0  9992
2 48621  65.9999 321.8969 0011391 269.9633  90.0130 13.83375465255595
2021-050D               
1 48843U 21050D   26161.30689227  .00003010  00000+0  12998-3 0  9993
2 48843  97.3333 237.4992 0004003 296.3631  63.7195 15.23259268277910
TYVAK-0173              
1 48892U 21059P   26161.17515477  .00001545  00000+0  19929-3 0  9998
2 48892  96.0086 239.2747 0010673  60.4265 299.8015 14.81867765267200
MANDRAKE 2 ABLE         
1 48907U 21059AE  26161.28780244  .00019973  00000+0  30223-3 0  9997
2 48907  97.7041 350.5478 0005039  31.4260 328.7293 15.54712090276051
MANDRAKE 2 BAKER        
1 48908U 21059AF  26161.04696720  .00025248  00000+0  32309-3 0  9996
2 48908  97.7011 353.1111 0003541  34.0319 326.1163 15.59199625276182
PACE-1                  
1 48909U 21059AG  26160.80398454  .00088281  00000+0  50507-3 0  9999
2 48909  97.6778 358.1198 0000775 322.4329  37.6882 15.78597953276632
YAM-3                   
1 48915U 21059AN  26161.28199944  .00011379  00000+0  21645-3 0  9997
2 48915  97.6997 347.7874 0005640  33.9961 326.1649 15.48402489275923
FARADAY_PHOENIX         
1 48924U 21059AX  26161.04844754  .00129574  00000+0  80340-3 0  9991
2 48924  97.6827 358.2928 0002530 340.6180  19.4988 15.76656005276530
DEMO8 (TENZING)         
1 48951U 21059CA  26161.09776053  .00019435  00000+0  29385-3 0  9998
2 48951  97.7034 353.9791 0006877  21.9918 338.1629 15.54727410276209
NAPA-2                  
1 48963U 21059CN  26160.24301641  .00290503  35484-4  72516-3 0  9994
2 48963  97.6730 358.3052 0002669 251.6260 108.4724 15.95777302276541
FENGYUN 3E              
1 49008U 21062A   26161.29593586  .00000051  00000+0  44956-4 0  9992
2 49008  98.7497 164.7809 0002782  97.1257 263.0235 14.19903390255600
ISS (NAUKA)             
1 49044U 21066A   26161.15832933  .00007673  00000+0  14376-3 0  9992
2 49044  51.6328 334.8807 0006746 152.8443 207.2900 15.49693861570768
STARLINK-3100           
1 49144U 21082Q   26161.09724058 -.00001674  00000+0 -13257-3 0  9996
2 49144  70.0010  61.4598 0002972 246.7243 113.3603 14.98321413259822
CUTE                    
1 49263U 21088D   26161.02259619  .00235005  22459-4  74682-3 0  9994
2 49263  97.4186 259.6343 0008118 245.9134 114.1291 15.91119117261418
2021-091B               
1 49316U 21091B   26161.27285737  .00001905  00000+0  95360-4 0  9994
2 49316  97.4478 348.9539 0014913  67.1490 293.1317 15.18516324257938
SDGSAT 1                
1 49387U 21100A   26161.31813356  .00002714  00000+0  12942-3 0  9995
2 49387  97.2643 208.5223 0006887 328.3682  31.7139 15.19895193254878
TEIKYOSAT-4 (OORURI)    
1 49396U 21102B   26161.02771634  .00002156  00000+0  13827-3 0  9990
2 49396  97.3672 190.7892 0010933 324.1714  35.8781 15.09483947251641
Z-SAT                   
1 49399U 21102E   26161.27765872  .00003524  00000+0  17507-3 0  9996
2 49399  97.3335 196.8104 0014701 271.7260  88.2290 15.18213368252391
HIBARI                  
1 49400U 21102F   26161.08090278  .00010156  00000+0  33483-3 0  9999
2 49400  97.3245 207.0658 0010645 217.6275 142.4223 15.31586908253108
KOSEN-1                 
1 49402U 21102H   26161.06339965  .00007325  00000+0  28074-3 0  9992
2 49402  97.3193 203.3593 0012505 227.0178 133.0014 15.26737234252931
GLOBAL-14               
1 49469U 21106A   26161.19338184  .00025574  00000+0  44216-3 0  9997
2 49469  42.0056 332.6349 0016904 330.7787  29.2110 15.50255429257047
GAOFEN-3 02             
1 49495U 21109A   26161.31925031  .00000083  00000+0  38330-4 0  9995
2 49495  98.4093 169.5138 0003352  33.7310 326.4092 14.42216434239325
GLOBAL-12               
1 49772U 21115BA  26161.31794203  .00032578  00000+0  51579-3 0  9998
2 49772  53.1946  77.5592 0003416  56.0101 304.1234 15.53154619254830
GLOBAL-13               
1 49773U 21115BB  26161.07288202  .00021679  00000+0  44828-3 0  9998
2 49773  53.1974  88.4002 0004124  93.5031 266.6449 15.45767005254665
GLOBAL-17               
1 49949U 21120A   26161.07474238  .00027760  00000+0  45304-3 0  9992
2 49949  41.9934  91.6632 0014558 210.2160 149.7846 15.51879539253797
GLOBAL-16               
1 49950U 21120B   26160.94981761  .00024888  00000+0  43816-3 0  9997
2 49950  41.9946  96.0048 0012369 201.9738 158.0577 15.49830092253723
XW-3 (CAS-9)            
1 50466U 21131B   26161.32093541  .00000406  00000+0  13889-3 0  9993
2 50466  98.4971 253.7478 0005268 112.5579 247.6168 14.41351268234129
ION SCV-004             
1 50993U 22002K   26161.30402054  .00004904  00000+0  16932-3 0  9996
2 50993  97.2841 219.0919 0007917  31.2292 328.9418 15.30383920244248
ETV-A1                  
1 51060U 22002CE  26161.25877745  .00010274  00000+0  25490-3 0  9995
2 51060  97.2883 227.5845 0005288  28.4428 331.7106 15.40537344244776
BRO-5                   
1 51061U 22002CF  26161.26596010  .00026809  00000+0  53183-3 0  9991
2 51061  97.3002 234.8752 0004225   2.0727 358.0540 15.46987519245188
