OBJECT_NAME,OBJECT_ID,EPOCH,MEAN_MOTION,ECCENTRICITY,INCLINATION,RA_OF_ASC_NODE,ARG_OF_PERICENTER,MEAN_ANOMALY,EPHEMERIS_TYPE,CLASSIFICATION_TYPE,NORAD_CAT_ID,ELEMENT_SET_NO,REV_AT_EPOCH,BSTAR,MEAN_MOTION_DOT,MEAN_MOTION_DDOT
HAIYANG-2D,2021-043A,2026-06-10T06:43:02.431200,13.83375465,.00113913,65.9999,321.8969,269.9633,90.0130,0,U,48621,999,25559,-.28041842E-4,-.112E-5,0
2021-050D,2021-050D,2026-06-10T07:21:55.492128,15.23259268,.00040037,97.3333,237.4992,296.3631,63.7195,0,U,48843,999,27791,.12998244E-3,.301E-4,0
TYVAK-0173,2021-059P,2026-06-10T04:12:13.372128,14.81867765,.00106734,96.0086,239.2747,60.4265,299.8015,0,U,48892,999,26720,.19929083E-3,.1545E-4,0
MANDRAKE 2 ABLE,2021-059AE,2026-06-10T06:54:26.130816,15.54712090,.00050396,97.7041,350.5478,31.4260,328.7293,0,U,48907,999,27605,.30222794E-3,.19973E-3,0
MANDRAKE 2 BAKER,2021-059AF,2026-06-10T01:07:37.966080,15.59199625,.00035419,97.7011,353.1111,34.0319,326.1163,0,U,48908,999,27618,.32309409E-3,.25248E-3,0
PACE-1,2021-059AG,2026-06-09T19:17:44.264256,15.78597953,.0000775,97.6778,358.1198,322.4329,37.6882,0,U,48909,999,27663,.50507E-3,.88281E-3,0
YAM-3,2021-059AN,2026-06-10T06:46:04.751616,15.48402489,.00056407,97.6997,347.7874,33.9961,326.1649,0,U,48915,999,27592,.21645485E-3,.11379E-3,0
FARADAY_PHOENIX,2021-059AX,2026-06-10T01:09:45.867456,15.76656005,.00025304,97.6827,358.2928,340.6180,19.4988,0,U,48924,999,27653,.80339915E-3,.129574E-2,0
DEMO8 (TENZING),2021-059CA,2026-06-10T02:20:46.509792,15.54727410,.00068776,97.7034,353.9791,21.9918,338.1629,0,U,48951,999,27620,.2938495E-3,.19435E-3,0
NAPA-2,2021-059CN,2026-06-09T05:49:56.617824,15.95777302,.00026691,97.6730,358.3052,251.6260,108.4724,0,U,48963,999,27654,.72515668E-3,.290503E-2,.35483944E-4
FENGYUN 3E,2021-062A,2026-06-10T07:06:08.858304,14.19903390,.00027824,98.7497,164.7809,97.1257,263.0235,0,U,49008,999,25560,.44955638E-4,.51E-6,0
ISS (NAUKA),2021-066A,2026-06-10T03:47:59.654112,15.49693861,.00067462,51.6328,334.8807,152.8443,207.2900,0,U,49044,999,57076,.14375612E-3,.7673E-4,0
STARLINK-3100,2021-082Q,2026-06-10T02:20:01.586112,14.98321413,.00029726,70.0010,61.4598,246.7243,113.3603,0,U,49144,999,25982,-.13257134E-3,-.1674E-4,0
CUTE,2021-088D,2026-06-10T00:32:32.310816,15.91119117,.00081184,97.4186,259.6343,245.9134,114.1291,0,U,49263,999,26141,.74682145E-3,.235005E-2,.22458789E-4
2021-091B,2021-091B,2026-06-10T06:32:54.876768,15.18516324,.00149133,97.4478,348.9539,67.1490,293.1317,0,U,49316,999,25793,.95360054E-4,.1905E-4,0
SDGSAT 1,2021-100A,2026-06-10T07:38:06.739584,15.19895193,.00068878,97.2643,208.5223,328.3682,31.7139,0,U,49387,999,25487,.12941584E-3,.2714E-4,0
TEIKYOSAT-4 (OORURI),2021-102B,2026-06-10T00:39:54.691776,15.09483947,.00109334,97.3672,190.7892,324.1714,35.8781,0,U,49396,999,25164,.13826574E-3,.2156E-4,0
Z-SAT,2021-102E,2026-06-10T06:39:49.713408,15.18213368,.00147011,97.3335,196.8104,271.7260,88.2290,0,U,49399,999,25239,.1750695E-3,.3524E-4,0
HIBARI,2021-102F,2026-06-10T01:56:30.000192,15.31586908,.00106452,97.3245,207.0658,217.6275,142.4223,0,U,49400,999,25310,.33483497E-3,.10156E-3,0
KOSEN-1,2021-102H,2026-06-10T01:31:17.729760,15.26737234,.00125057,97.3193,203.3593,227.0178,133.0014,0,U,49402,999,25293,.28074263E-3,.7325E-4,0
GLOBAL-14,2021-106A,2026-06-10T04:38:28.190976,15.50255429,.00169041,42.0056,332.6349,330.7787,29.2110,0,U,49469,999,25704,.44216424E-3,.25574E-3,0
GAOFEN-3 02,2021-109A,2026-06-10T07:39:43.226784,14.42216434,.00033526,98.4093,169.5138,33.7310,326.4092,0,U,49495,999,23932,.38329937E-4,.83E-6,0
GLOBAL-12,2021-115BA,2026-06-10T07:37:50.191392,15.53154619,.00034168,53.1946,77.5592,56.0101,304.1234,0,U,49772,999,25483,.5157933E-3,.32578E-3,0
GLOBAL-13,2021-115BB,2026-06-10T01:44:57.006528,15.45767005,.00041246,53.1974,88.4002,93.5031,266.6449,0,U,49773,999,25466,.44828497E-3,.21679E-3,0
GLOBAL-17,2021-120A,2026-06-10T01:47:37.741632,15.51879539,.00145581,41.9934,91.6632,210.2160,149.7846,0,U,49949,999,25379,.4530369E-3,.2776E-3,0
GLOBAL-16,2021-120B,2026-06-09T22:47:44.241504,15.49830092,.00123696,41.9946,96.0048,201.9738,158.0577,0,U,49950,999,25372,.43815786E-3,.24888E-3,0
XW-3 (CAS-9),2021-131B,2026-06-10T07:42:08.819424,14.41351268,.00052683,98.4971,253.7478,112.5579,247.6168,0,U,50466,999,23412,.13889081E-3,.406E-5,0
ION SCV-004,2022-002K,2026-06-10T07:17:47.374656,15.30383920,.00079171,97.2841,219.0919,31.2292,328.9418,0,U,50993,999,24424,.16931531E-3,.4904E-4,0
ETV-A1,2022-002CE,2026-06-10T06:12:38.371680,15.40537344,.00052882,97.2883,227.5845,28.4428,331.7106,0,U,51060,999,24477,.25490148E-3,.10274E-3,0
BRO-5,2022-002CF,2026-06-10T06:22:58.952640,15.46987519,.00042251,97.3002,234.8752,2.0727,358.0540,0,U,51061,999,24518,.53183102E-3,.26809E-3,0
